[{"OBJECT_NAME":"STARLINK-11123 [DTC]","OBJECT_ID":"2024-107D","EPOCH":"2026-03-09T18:08:21.721344","MEAN_MOTION":15.69658416,"ECCENTRICITY":7.079e-5,"INCLINATION":53.1596,"RA_OF_ASC_NODE":251.1333,"ARG_OF_PERICENTER":92.7857,"MEAN_ANOMALY":267.3242,"EPHEMERIS_TYPE":0,"CLASSIFICATION_TYPE":"U","NORAD_CAT_ID":59948,"ELEMENT_SET_NO":999,"REV_AT_EPOCH":10221,"BSTAR":-2.2797912e-5,"MEAN_MOTION_DOT":-3.342e-5,"MEAN_MOTION_DDOT":0},{"OBJECT_NAME":"PTD-R (TYVAK-0127)","OBJECT_ID":"2024-149BH","EPOCH":"2026-03-09T19:31:31.459584","MEAN_MOTION":15.69700541,"ECCENTRICITY":0.00042667,"INCLINATION":97.3759,"RA_OF_ASC_NODE":162.0693,"ARG_OF_PERICENTER":248.5856,"MEAN_ANOMALY":111.4951,"EPHEMERIS_TYPE":0,"CLASSIFICATION_TYPE":"U","NORAD_CAT_ID":60523,"ELEMENT_SET_NO":999,"REV_AT_EPOCH":8769,"BSTAR":0.0012020526,"MEAN_MOTION_DOT":0.00144621,"MEAN_MOTION_DDOT":0}]
