STARLINK-11123 [DTC]    
1 59948U 24107D   26068.75580696 -.00003342  00000+0 -22798-4 0  9992
2 59948  53.1596 251.1333 0000708  92.7857 267.3242 15.69658416102210
PTD-R (TYVAK-0127)      
1 60523U 24149BH  26068.81355855  .00144621  00000+0  12021-2 0  9993
2 60523  97.3759 162.0693 0004267 248.5856 111.4951 15.69700541 87692
